start=new Date('2022-02-25T00:00:00.000Z').valueOf();
sats=[{"BSTAR":"-0.00005327900000","CLASSIFICATION_TYPE":"U","CENTER_NAME":"EARTH","PERIOD":"95.593","SITE":"AFETR","PERIAPSIS":"546.133","FILE":"3320325","OBJECT_NAME":"STARLINK-2698","DECAY_DATE":null,"SEMIMAJOR_AXIS":"6925.372","COUNTRY_CODE":"US","OBJECT_TYPE":"PAYLOAD","APOAPSIS":"548.341","ECCENTRICITY":"0.00015940","RA_OF_ASC_NODE":"322.5602","MEAN_ANOMALY":"287.3455","ELEMENT_SET_NO":"999","INCLINATION":"53.0546","NORAD_CAT_ID":"48458","LAUNCH_DATE":"2021-05-09","MEAN_ELEMENT_THEORY":"SGP4","EPHEMERIS_TYPE":"0","TLE_LINE1":"1 48458U 21040AG  22055.93646570 -.00001075  00000-0 -53279-4 0  9995","MEAN_MOTION":"15.06392322","RCS_SIZE":"LARGE","GP_ID":"196902533","TIME_SYSTEM":"UTC","REV_AT_EPOCH":"4514","TLE_LINE2":"2 48458  53.0546 322.5602 0001594  72.7708 287.3455 15.06392322 45145","MEAN_MOTION_DDOT":"0.0000000000000","OBJECT_ID":"2021-040AG","REF_FRAME":"TEME","ARG_OF_PERICENTER":"72.7708","EPOCH":"2022-02-24T22:28:30.636480","MEAN_MOTION_DOT":"-0.00001075"},{"GP_ID":"196901281","EPHEMERIS_TYPE":"0","TLE_LINE1":"1 48459U 21040AH  22055.90330276  .00001710  00000-0  13368-3 0  9994","MEAN_MOTION":"15.06393972","RCS_SIZE":"LARGE","EPOCH":"2022-02-24T21:40:45.358464","MEAN_MOTION_DOT":"0.00001710","TLE_LINE2":"2 48459  53.0561 322.7095 0001695  57.6278 302.4875 15.06393972 44435","MEAN_MOTION_DDOT":"0.0000000000000","REF_FRAME":"TEME","ARG_OF_PERICENTER":"57.6278","OBJECT_ID":"2021-040AH","TIME_SYSTEM":"UTC","REV_AT_EPOCH":"4443","MEAN_ANOMALY":"302.4875","RA_OF_ASC_NODE":"322.7095","ECCENTRICITY":"0.00016950","MEAN_ELEMENT_THEORY":"SGP4","LAUNCH_DATE":"2021-05-09","ELEMENT_SET_NO":"999","NORAD_CAT_ID":"48459","INCLINATION":"53.0561","SEMIMAJOR_AXIS":"6925.367","DECAY_DATE":null,"OBJECT_NAME":"STARLINK-2579","OBJECT_TYPE":"PAYLOAD","APOAPSIS":"548.406","COUNTRY_CODE":"US","CLASSIFICATION_TYPE":"U","CENTER_NAME":"EARTH","BSTAR":"0.00013368000000","PERIAPSIS":"546.058","FILE":"3320325","SITE":"AFETR","PERIOD":"95.593"},{"ECCENTRICITY":"0.00019420","RA_OF_ASC_NODE":"322.7678","MEAN_ANOMALY":"300.7499","NORAD_CAT_ID":"48460","INCLINATION":"53.0559","ELEMENT_SET_NO":"999","LAUNCH_DATE":"2021-05-09","MEAN_ELEMENT_THEORY":"SGP4","TLE_LINE1":"1 48460U 21040AJ  22055.88948533 -.00002575  00000-0 -15405-3 0  9990","RCS_SIZE":"LARGE","MEAN_MOTION":"15.06389602","EPHEMERIS_TYPE":"0","GP_ID":"196901032","REV_AT_EPOCH":"4493","TIME_SYSTEM":"UTC","MEAN_MOTION_DDOT":"0.0000000000000","TLE_LINE2":"2 48460  53.0559 322.7678 0001942  59.3682 300.7499 15.06389602 44937","REF_FRAME":"TEME","ARG_OF_PERICENTER":"59.3682","OBJECT_ID":"2021-040AJ","MEAN_MOTION_DOT":"-0.00002575","EPOCH":"2022-02-24T21:20:51.532512","BSTAR":"-0.00015405000000","CENTER_NAME":"EARTH","CLASSIFICATION_TYPE":"U","PERIOD":"95.593","SITE":"AFETR","FILE":"3320325","PERIAPSIS":"545.901","OBJECT_NAME":"STARLINK-2582","DECAY_DATE":null,"SEMIMAJOR_AXIS":"6925.380","COUNTRY_CODE":"US","APOAPSIS":"548.590","OBJECT_TYPE":"PAYLOAD"},{"ECCENTRICITY":"0.00019150","RA_OF_ASC_NODE":"322.6951","MEAN_ANOMALY":"306.9704","NORAD_CAT_ID":"48461","INCLINATION":"53.0566","ELEMENT_SET_NO":"999","LAUNCH_DATE":"2021-05-09","MEAN_ELEMENT_THEORY":"SGP4","TLE_LINE1":"1 48461U 21040AK  22055.90423270  .00000020  00000-0  20275-4 0  9993","MEAN_MOTION":"15.06397956","RCS_SIZE":"LARGE","EPHEMERIS_TYPE":"0","GP_ID":"196902283","REV_AT_EPOCH":"4443","TIME_SYSTEM":"UTC","TLE_LINE2":"2 48461  53.0566 322.6951 0001915  53.1460 306.9704 15.06397956 44438","OBJECT_ID":"2021-040AK","MEAN_MOTION_DDOT":"0.0000000000000","REF_FRAME":"TEME","ARG_OF_PERICENTER":"53.1460","MEAN_MOTION_DOT":"0.00000020","EPOCH":"2022-02-24T21:42:05.705280","BSTAR":"0.00002027500000","CENTER_NAME":"EARTH","CLASSIFICATION_TYPE":"U","PERIOD":"95.592","SITE":"AFETR","FILE":"3320325","PERIAPSIS":"545.894","OBJECT_NAME":"STARLINK-2693","DECAY_DATE":null,"SEMIMAJOR_AXIS":"6925.355","COUNTRY_CODE":"US","APOAPSIS":"548.546","OBJECT_TYPE":"PAYLOAD"},{"MEAN_ANOMALY":"300.2863","RA_OF_ASC_NODE":"327.5851","ECCENTRICITY":"0.00016050","MEAN_ELEMENT_THEORY":"SGP4","LAUNCH_DATE":"2021-05-09","INCLINATION":"53.0553","NORAD_CAT_ID":"48462","ELEMENT_SET_NO":"999","GP_ID":"196902034","RCS_SIZE":"LARGE","TLE_LINE1":"1 48462U 21040AL  22055.92679443  .00000807  00000-0  73071-4 0  9996","MEAN_MOTION":"15.06384512","EPHEMERIS_TYPE":"0","MEAN_MOTION_DOT":"0.00000807","EPOCH":"2022-02-24T22:14:35.038752","REF_FRAME":"TEME","TLE_LINE2":"2 48462  53.0553 327.5851 0001605  59.8285 300.2863 15.06384512 44361","MEAN_MOTION_DDOT":"0.0000000000000","OBJECT_ID":"2021-040AL","ARG_OF_PERICENTER":"59.8285","REV_AT_EPOCH":"4436","TIME_SYSTEM":"UTC","CLASSIFICATION_TYPE":"U","CENTER_NAME":"EARTH","BSTAR":"0.00007307100000","FILE":"3320325","PERIAPSIS":"546.150","SITE":"AFETR","PERIOD":"95.593","SEMIMAJOR_AXIS":"6925.396","DECAY_DATE":null,"OBJECT_NAME":"STARLINK-2683","APOAPSIS":"548.373","OBJECT_TYPE":"PAYLOAD","COUNTRY_CODE":"US"},{"ECCENTRICITY":"0.00017440","RA_OF_ASC_NODE":"327.7570","MEAN_ANOMALY":"299.2414","ELEMENT_SET_NO":"999","NORAD_CAT_ID":"48463","INCLINATION":"53.0559","LAUNCH_DATE":"2021-05-09","MEAN_ELEMENT_THEORY":"SGP4","EPHEMERIS_TYPE":"0","TLE_LINE1":"1 48463U 21040AM  22055.89361379 -.00000797  00000-0 -34625-4 0  9991","MEAN_MOTION":"15.06388250","RCS_SIZE":"LARGE","GP_ID":"196900782","TIME_SYSTEM":"UTC","REV_AT_EPOCH":"4436","ARG_OF_PERICENTER":"60.8750","TLE_LINE2":"2 48463  53.0559 327.7570 0001744  60.8750 299.2414 15.06388250 44363","MEAN_MOTION_DDOT":"0.0000000000000","REF_FRAME":"TEME","OBJECT_ID":"2021-040AM","EPOCH":"2022-02-24T21:26:48.231456","MEAN_MOTION_DOT":"-0.00000797","BSTAR":"-0.00003462500000","CENTER_NAME":"EARTH","CLASSIFICATION_TYPE":"U","PERIOD":"95.593","SITE":"AFETR","FILE":"3320325","PERIAPSIS":"546.042","OBJECT_NAME":"STARLINK-2689","DECAY_DATE":null,"SEMIMAJOR_AXIS":"6925.385","COUNTRY_CODE":"US","OBJECT_TYPE":"PAYLOAD","APOAPSIS":"548.457"},{"FILE":"3320325","PERIAPSIS":"546.032","PERIOD":"95.593","SITE":"AFETR","CENTER_NAME":"EARTH","CLASSIFICATION_TYPE":"U","BSTAR":"-0.00001120700000","APOAPSIS":"548.474","OBJECT_TYPE":"PAYLOAD","COUNTRY_CODE":"US","DECAY_DATE":null,"SEMIMAJOR_AXIS":"6925.388","OBJECT_NAME":"STARLINK-2686","MEAN_ELEMENT_THEORY":"SGP4","NORAD_CAT_ID":"48464","INCLINATION":"53.0542","ELEMENT_SET_NO":"999","LAUNCH_DATE":"2021-05-09","MEAN_ANOMALY":"292.4087","ECCENTRICITY":"0.00017630","RA_OF_ASC_NODE":"327.5536","MEAN_MOTION_DOT":"-0.00000448","EPOCH":"2022-02-24T22:31:51.558816","REV_AT_EPOCH":"4436","TIME_SYSTEM":"UTC","TLE_LINE2":"2 48464  53.0542 327.5536 0001763  67.7089 292.4087 15.06387233 44369","REF_FRAME":"TEME","MEAN_MOTION_DDOT":"0.0000000000000","OBJECT_ID":"2021-040AN","ARG_OF_PERICENTER":"67.7089","TLE_LINE1":"1 48464U 21040AN  22055.93879119 -.00000448  00000-0 -11207-4 0  9997","MEAN_MOTION":"15.06387233","RCS_SIZE":"LARGE","EPHEMERIS_TYPE":"0","GP_ID":"196901532"},{"BSTAR":"0.00038484000000","CENTER_NAME":"EARTH","CLASSIFICATION_TYPE":"U","SITE":"AFETR","PERIOD":"95.592","FILE":"3320325","PERIAPSIS":"546.004","OBJECT_NAME":"STARLINK-2681","SEMIMAJOR_AXIS":"6925.325","DECAY_DATE":null,"COUNTRY_CODE":"US","APOAPSIS":"548.375","OBJECT_TYPE":"PAYLOAD","RA_OF_ASC_NODE":"327.7989","ECCENTRICITY":"0.00017120","MEAN_ANOMALY":"289.5140","LAUNCH_DATE":"2021-05-09","INCLINATION":"53.0548","NORAD_CAT_ID":"48465","ELEMENT_SET_NO":"999","MEAN_ELEMENT_THEORY":"SGP4","GP_ID":"196901784","TLE_LINE1":"1 48465U 21040AP  22055.88349773  .00005456  00000-0  38484-3 0  9997","RCS_SIZE":"LARGE","MEAN_MOTION":"15.06407740","EPHEMERIS_TYPE":"0","ARG_OF_PERICENTER":"70.6034","TLE_LINE2":"2 48465  53.0548 327.7989 0001712  70.6034 289.5140 15.06407740 44360","MEAN_MOTION_DDOT":"0.0000000000000","REF_FRAME":"TEME","OBJECT_ID":"2021-040AP","REV_AT_EPOCH":"4436","TIME_SYSTEM":"UTC","MEAN_MOTION_DOT":"0.00005456","EPOCH":"2022-02-24T21:12:14.203872"},{"PERIAPSIS":"545.969","FILE":"3320325","SITE":"AFETR","PERIOD":"95.593","CENTER_NAME":"EARTH","CLASSIFICATION_TYPE":"U","BSTAR":"0.00003900000000","OBJECT_TYPE":"PAYLOAD","APOAPSIS":"548.516","COUNTRY_CODE":"US","SEMIMAJOR_AXIS":"6925.378","DECAY_DATE":null,"OBJECT_NAME":"STARLINK-2687","MEAN_ELEMENT_THEORY":"SGP4","LAUNCH_DATE":"2021-05-09","ELEMENT_SET_NO":"999","NORAD_CAT_ID":"48466","INCLINATION":"53.0560","MEAN_ANOMALY":"296.5784","RA_OF_ASC_NODE":"327.5676","ECCENTRICITY":"0.00018390","EPOCH":"2022-02-24T22:26:33.549792","MEAN_MOTION_DOT":"0.00000299","MEAN_MOTION_DDOT":"0.0000000000000","TLE_LINE2":"2 48466  53.0560 327.5676 0001839  63.5393 296.5784 15.06390547 44374","REF_FRAME":"TEME","OBJECT_ID":"2021-040AQ","ARG_OF_PERICENTER":"63.5393","TIME_SYSTEM":"UTC","REV_AT_EPOCH":"4437","GP_ID":"196902534","EPHEMERIS_TYPE":"0","TLE_LINE1":"1 48466U 21040AQ  22055.93511053  .00000299  00000-0  39000-4 0  9992","RCS_SIZE":"LARGE","MEAN_MOTION":"15.06390547"},{"DECAY_DATE":null,"SEMIMAJOR_AXIS":"6925.393","OBJECT_NAME":"STARLINK-2659","OBJECT_TYPE":"PAYLOAD","APOAPSIS":"548.370","COUNTRY_CODE":"US","CLASSIFICATION_TYPE":"U","CENTER_NAME":"EARTH","BSTAR":"-0.00003587100000","PERIAPSIS":"546.147","FILE":"3320325","PERIOD":"95.593","SITE":"AFETR","EPHEMERIS_TYPE":"0","TLE_LINE1":"1 48467U 21040AR  22055.89456063 -.00000816  00000-0 -35871-4 0  9996","MEAN_MOTION":"15.06385372","RCS_SIZE":"LARGE","GP_ID":"196901282","EPOCH":"2022-02-24T21:28:10.038432","MEAN_MOTION_DOT":"-0.00000816","TIME_SYSTEM":"UTC","REV_AT_EPOCH":"4436","TLE_LINE2":"2 48467  53.0553 327.7510 0001605  63.6773 296.4381 15.06385372 44361","MEAN_MOTION_DDOT":"0.0000000000000","OBJECT_ID":"2021-040AR","ARG_OF_PERICENTER":"63.6773","REF_FRAME":"TEME","MEAN_ANOMALY":"296.4381","ECCENTRICITY":"0.00016050","RA_OF_ASC_NODE":"327.7510","MEAN_ELEMENT_THEORY":"SGP4","ELEMENT_SET_NO":"999","INCLINATION":"53.0553","NORAD_CAT_ID":"48467","LAUNCH_DATE":"2021-05-09"}];
